[{"OBJECT_NAME":"SCS-01 J","OBJECT_ID":"2025-100J","EPOCH":"2026-03-09T22:31:25.904064","MEAN_MOTION":15.31338011,"ECCENTRICITY":0.00063909,"INCLINATION":97.3693,"RA_OF_ASC_NODE":145.4824,"ARG_OF_PERICENTER":272.025,"MEAN_ANOMALY":88.026,"EPHEMERIS_TYPE":0,"CLASSIFICATION_TYPE":"U","NORAD_CAT_ID":63990,"ELEMENT_SET_NO":999,"REV_AT_EPOCH":4563,"BSTAR":0.0011832888,"MEAN_MOTION_DOT":0.00035886,"MEAN_MOTION_DDOT":0},{"OBJECT_NAME":"STARLINK-34643","OBJECT_ID":"2025-157V","EPOCH":"2026-03-09T23:21:36.766944","MEAN_MOTION":15.30226893,"ECCENTRICITY":0.00012292,"INCLINATION":53.1606,"RA_OF_ASC_NODE":344.6018,"ARG_OF_PERICENTER":107.1116,"MEAN_ANOMALY":253.0019,"EPHEMERIS_TYPE":0,"CLASSIFICATION_TYPE":"U","NORAD_CAT_ID":64923,"ELEMENT_SET_NO":999,"REV_AT_EPOCH":3616,"BSTAR":0.0012498126,"MEAN_MOTION_DOT":0.00036871,"MEAN_MOTION_DDOT":0}]
